[ {"name": "STARLINK-5622", "line1": "1 55358U 23013AD  26192.39057932  .00000292  00000+0  20126-4 0  9990", "line2": "2 55358  43.0043 324.6573 0001440 267.1583  92.9104 15.27576807190590"}, {"name": "STARLINK-5641", "line1": "1 55359U 23013AE  26192.40422962  .00000688  00000+0  34547-4 0  9993", "line2": "2 55359  43.0054 328.1733 0001330 279.7166  80.3536 15.27577672190551"}, {"name": "STARLINK-5664", "line1": "1 55360U 23013AF  26192.46010417 -.00000452  00000+0 -68967-5 0  9994", "line2": "2 55360  43.0043 342.4208 0001023 271.2107  88.8628 15.27576795190390"}, {"name": "STARLINK-5665", "line1": "1 55361U 23013AG  26192.32955527  .00000449  00000+0  25886-4 0  9996", "line2": "2 55361  43.0105 310.3508 0003113 280.5464  79.5037 15.27571340190750"}, {"name": "STARLINK-5574", "line1": "1 55362U 23013AH  26192.32312238  .00000459  00000+0  26201-4 0  9996", "line2": "2 55362  43.0006 310.3019 0000774 251.7613 108.3154 15.27579493190752"}, {"name": "STARLINK-5627", "line1": "1 55364U 23013AK  26191.87728082  .00000429  00000+0  25125-4 0  9996", "line2": "2 55364  43.0033 331.0954 0001240 265.9083  94.1627 15.27587220190472"}, {"name": "STARLINK-5639", "line1": "1 55365U 23013AL  26192.45239666  .00000622  00000+0  32152-4 0  9990", "line2": "2 55365  43.0012 342.3680 0001468 248.8280 111.2415 15.27570093190399"}, {"name": "STARLINK-5654", "line1": "1 55366U 23013AM  26192.64620134  .00000351  00000+0  22272-4 0  9997", "line2": "2 55366  43.0043 308.4275 0001596 271.1812  88.8857 15.27573190190805"}, {"name": "STARLINK-5635", "line1": "1 55367U 23013AN  26192.35525040 -.00000366  00000+0 -37699-5 0  9994", "line2": "2 55367  43.0019 310.5284 0001129 265.6178  94.4544 15.27577270190751"}, {"name": "STARLINK-5625", "line1": "1 55368U 23013AP  26192.38723296 -.00000358  00000+0 -34701-5 0  9993", "line2": "2 55368  43.0050 309.9227 0002010 273.4186  86.6436 15.27570859190762"}, {"name": "STARLINK-5644", "line1": "1 55369U 23013AQ  26191.33336806  .00039445  00000+0  14357-2 0  9994", "line2": "2 55369  43.0029 348.6395 0001204 264.7692  75.3759 15.27569871  5562"}, {"name": "STARLINK-5027", "line1": "1 55370U 23013AR  26192.72036553 -.00000619  00000+0 -12954-4 0  9992", "line2": "2 55370  43.0047 340.9448 0001431 272.3292  87.7396 15.27576166190431"}, {"name": "STARLINK-5590", "line1": "1 55371U 23013AS  26192.44468495 -.00000377  00000+0 -41705-5 0  9994", "line2": "2 55371  43.0043 342.3131 0001215 273.4938  86.5774 15.27577786191316"}, {"name": "STARLINK-5568", "line1": "1 55372U 23013AT  26192.42604956  .00000054  00000+0  11507-4 0  9993", "line2": "2 55372  43.0026 339.6071 0001362 272.4157  87.6539 15.27575434190425"}, {"name": "STARLINK-5581", "line1": "1 55373U 23013AU  26192.42941963  .00001300  00000+0  56775-4 0  9997", "line2": "2 55373  43.0028 343.0407 0001533 269.1595  90.9081 15.27581979190384"}, {"name": "STARLINK-5578", "line1": "1 55374U 23013AV  26192.42684379  .00000163  00000+0  15472-4 0  9998", "line2": "2 55374  43.0027 343.0300 0001675 262.9307  97.1354 15.27577196190383"}, {"name": "STARLINK-5588", "line1": "1 55375U 23013AW  26192.46653264  .00000199  00000+0  16773-4 0  9996", "line2": "2 55375  43.0039 342.4706 0001170 225.2661 134.8096 15.27563936190395"}, {"name": "STARLINK-5586", "line1": "1 55376U 23013AX  26192.61293804 -.00000082  00000+0  65418-5 0  9997", "line2": "2 55376  43.0038 309.0257 0001268 274.7375  85.3332 15.27577222190794"}, {"name": "STARLINK-5567", "line1": "1 55377U 23013AY  26192.74912566  .00000153  00000+0  15090-4 0  9993", "line2": "2 55377  43.0028 337.7253 0001754 264.1494  95.9157 15.27580121190472"}, {"name": "STARLINK-5572", "line1": "1 55378U 23013AZ  26191.91902939 -.00003293  00000+0 -11017-3 0  9999", "line2": "2 55378  43.0016 345.2466 0000793 281.9277  78.1486 15.27584665190316"}, {"name": "STARLINK-5569", "line1": "1 55379U 23013BA  26192.48115735 -.00000071  00000+0  69353-5 0  9991", "line2": "2 55379  43.0034 339.1562 0001698 272.4045  87.6612 15.27586912190435"}, {"name": "STARLINK-5571", "line1": "1 55380U 23013BB  26192.43868829  .00028342  00000+0  11792-2 0  9998", "line2": "2 55380  42.9989 328.1690 0001146 279.0029  81.0692 15.23249953190553"}, {"name": "STARLINK-5575", "line1": "1 55381U 23013BC  26192.42348121 -.00000148  00000+0  41694-5 0  9998", "line2": "2 55381  43.0038 339.5811 0001662 271.4319  88.6342 15.27573721190421"}, {"name": "STARLINK-5576", "line1": "1 55382U 23013BD  26192.41963105 -.00001272  00000+0 -36689-4 0  9990", "line2": "2 55382  43.0028 339.5572 0001424 270.0117  90.0571 15.27577304190424"}, {"name": "STARLINK-5531", "line1": "1 55383U 23013BE  26192.40521690 -.00000327  00000+0 -23249-5 0  9998", "line2": "2 55383  43.0050 310.0446 0002223 282.5465  77.5138 15.27586721190765"}, {"name": "STARLINK-5537", "line1": "1 55384U 23013BF  26192.73884664  .00000209  00000+0  17143-4 0  9990", "line2": "2 55384  43.0054 337.6587 0002270 283.3978  76.6621 15.27588290190479"}, {"name": "STARLINK-5556", "line1": "1 55385U 23013BG  26192.74526996  .00000562  00000+0  29953-4 0  9997", "line2": "2 55385  43.0032 337.6945 0001375 275.6022  84.4672 15.27581710190476"}, {"name": "STARLINK-5555", "line1": "1 55386U 23013BH  26192.42733757  .00001467  00000+0  62830-4 0  9994", "line2": "2 55386  43.0055 339.6127 0001186 271.4313  88.6403 15.27584664190427"}, {"name": "STARLINK-5085", "line1": "1 55392U 23014B   26192.74482015  .00000394  00000+0  40786-4 0  9999", "line2": "2 55392  69.9997  91.5591 0002929 270.7861  89.2963 14.98330057191130"}, {"name": "STARLINK-4786", "line1": "1 55393U 23014C   26190.22903295 -.00000119  00000+0 -21922-5 0  9998", "line2": "2 55393  69.9998 117.9109 0003083 251.9846 108.0977 14.98336410190263"}]