OBJECT_NAME,OBJECT_ID,EPOCH,MEAN_MOTION,ECCENTRICITY,INCLINATION,RA_OF_ASC_NODE,ARG_OF_PERICENTER,MEAN_ANOMALY,EPHEMERIS_TYPE,CLASSIFICATION_TYPE,NORAD_CAT_ID,ELEMENT_SET_NO,REV_AT_EPOCH,BSTAR,MEAN_MOTION_DOT,MEAN_MOTION_DDOT
STARLINK-5622,2023-013AD,2026-07-11T09:22:26.053248,15.27576807,.00014409,43.0043,324.6573,267.1583,92.9104,0,U,55358,999,19059,.20126319E-4,.292E-5,0
STARLINK-5641,2023-013AE,2026-07-11T09:42:05.439168,15.27577672,.00013303,43.0054,328.1733,279.7166,80.3536,0,U,55359,999,19055,.34546916E-4,.688E-5,0
STARLINK-5664,2023-013AF,2026-07-11T11:02:33.000288,15.27576795,.00010234,43.0043,342.4208,271.2107,88.8628,0,U,55360,999,19039,-.6896704E-5,-.452E-5,0
STARLINK-5665,2023-013AG,2026-07-11T07:54:33.575328,15.27571340,.00031139,43.0105,310.3508,280.5464,79.5037,0,U,55361,999,19075,.25885997E-4,.449E-5,0
STARLINK-5574,2023-013AH,2026-07-11T07:45:17.773632,15.27579493,.0000774,43.0006,310.3019,251.7613,108.3154,0,U,55362,999,19075,.26201021E-4,.459E-5,0
STARLINK-5627,2023-013AK,2026-07-10T21:03:17.062848,15.27587220,.00012407,43.0033,331.0954,265.9083,94.1627,0,U,55364,999,19047,.25125158E-4,.429E-5,0
STARLINK-5639,2023-013AL,2026-07-11T10:51:27.071424,15.27570093,.00014686,43.0012,342.3680,248.8280,111.2415,0,U,55365,999,19039,.32151946E-4,.622E-5,0
STARLINK-5654,2023-013AM,2026-07-11T15:30:31.795776,15.27573190,.00015962,43.0043,308.4275,271.1812,88.8857,0,U,55366,999,19080,.22272091E-4,.351E-5,0
STARLINK-5635,2023-013AN,2026-07-11T08:31:33.634560,15.27577270,.00011295,43.0019,310.5284,265.6178,94.4544,0,U,55367,999,19075,-.3769937E-5,-.366E-5,0
STARLINK-5625,2023-013AP,2026-07-11T09:17:36.927744,15.27570859,.00020107,43.0050,309.9227,273.4186,86.6436,0,U,55368,999,19076,-.3470133E-5,-.358E-5,0
STARLINK-5644,2023-013AQ,2026-07-10T08:00:03.000384,15.27569871,.00012042,43.0029,348.6395,264.7692,75.3759,0,U,55369,999,556,.14357323E-2,.39445E-3,0
STARLINK-5027,2023-013AR,2026-07-11T17:17:19.581792,15.27576166,.00014314,43.0047,340.9448,272.3292,87.7396,0,U,55370,999,19043,-.12954379E-4,-.619E-5,0
STARLINK-5590,2023-013AS,2026-07-11T10:40:20.779680,15.27577786,.00012155,43.0043,342.3131,273.4938,86.5774,0,U,55371,999,19131,-.4170467E-5,-.377E-5,0
STARLINK-5568,2023-013AT,2026-07-11T10:13:30.681984,15.27575434,.00013627,43.0026,339.6071,272.4157,87.6539,0,U,55372,999,19042,.11506662E-4,.54E-6,0
STARLINK-5581,2023-013AU,2026-07-11T10:18:21.856032,15.27581979,.00015332,43.0028,343.0407,269.1595,90.9081,0,U,55373,999,19038,.56774531E-4,.13E-4,0
STARLINK-5578,2023-013AV,2026-07-11T10:14:39.303456,15.27577196,.00016757,43.0027,343.0300,262.9307,97.1354,0,U,55374,999,19038,.15471958E-4,.163E-5,0
STARLINK-5588,2023-013AW,2026-07-11T11:11:48.420096,15.27563936,.00011708,43.0039,342.4706,225.2661,134.8096,0,U,55375,999,19039,.16773224E-4,.199E-5,0
STARLINK-5586,2023-013AX,2026-07-11T14:42:37.846656,15.27577222,.00012682,43.0038,309.0257,274.7375,85.3332,0,U,55376,999,19079,.6541822E-5,-.82E-6,0
STARLINK-5567,2023-013AY,2026-07-11T17:58:44.457024,15.27580121,.00017545,43.0028,337.7253,264.1494,95.9157,0,U,55377,999,19047,.15089677E-4,.153E-5,0
STARLINK-5572,2023-013AZ,2026-07-10T22:03:24.139296,15.27584665,.00007932,43.0016,345.2466,281.9277,78.1486,0,U,55378,999,19031,-.11017189E-3,-.3293E-4,0
STARLINK-5569,2023-013BA,2026-07-11T11:32:51.995040,15.27586912,.00016982,43.0034,339.1562,272.4045,87.6612,0,U,55379,999,19043,.6935261E-5,-.71E-6,0
STARLINK-5571,2023-013BB,2026-07-11T10:31:42.668256,15.23249953,.00011461,42.9989,328.1690,279.0029,81.0692,0,U,55380,999,19055,.11791667E-2,.28342E-3,0
STARLINK-5575,2023-013BC,2026-07-11T10:09:48.776544,15.27573721,.00016628,43.0038,339.5811,271.4319,88.6342,0,U,55381,999,19042,.4169388E-5,-.148E-5,0
STARLINK-5576,2023-013BD,2026-07-11T10:04:16.122720,15.27577304,.00014243,43.0028,339.5572,270.0117,90.0571,0,U,55382,999,19042,-.36689237E-4,-.1272E-4,0
STARLINK-5531,2023-013BE,2026-07-11T09:43:30.740160,15.27586721,.00022231,43.0050,310.0446,282.5465,77.5138,0,U,55383,999,19076,-.2324867E-5,-.327E-5,0
STARLINK-5537,2023-013BF,2026-07-11T17:43:56.349696,15.27588290,.00022708,43.0054,337.6587,283.3978,76.6621,0,U,55384,999,19047,.17143098E-4,.209E-5,0
STARLINK-5556,2023-013BG,2026-07-11T17:53:11.324544,15.27581710,.00013754,43.0032,337.6945,275.6022,84.4672,0,U,55385,999,19047,.2995301E-4,.562E-5,0
STARLINK-5555,2023-013BH,2026-07-11T10:15:21.966048,15.27584664,.00011867,43.0055,339.6127,271.4313,88.6403,0,U,55386,999,19042,.62830032E-4,.1467E-4,0
STARLINK-5085,2023-014B,2026-07-11T17:52:32.460960,14.98330057,.00029298,69.9997,91.5591,270.7861,89.2963,0,U,55392,999,19113,.40786129E-4,.394E-5,0
STARLINK-4786,2023-014C,2026-07-09T05:29:48.446880,14.98336410,.00030834,69.9998,117.9109,251.9846,108.0977,0,U,55393,999,19026,-.2192203E-5,-.119E-5,0
